{
    "links": {
        "self": "http://www.neowsapp.com/rest/v1/neo/3674105?api_key=iIulBulltgU6a56xZRHN4H3l9WmuAYTsLGpBGhQ2"
    },
    "id": "3674105",
    "neo_reference_id": "3674105",
    "name": "(2014 ML27)",
    "designation": "2014 ML27",
    "nasa_jpl_url": "http://ssd.jpl.nasa.gov/sbdb.cgi?sstr=3674105",
    "absolute_magnitude_h": 22.7,
    "estimated_diameter": {
        "kilometers": {
            "estimated_diameter_min": 0.0766575574,
            "estimated_diameter_max": 0.1714115092
        },
        "meters": {
            "estimated_diameter_min": 76.6575573531,
            "estimated_diameter_max": 171.4115092306
        },
        "miles": {
            "estimated_diameter_min": 0.0476327831,
            "estimated_diameter_max": 0.1065101409
        },
        "feet": {
            "estimated_diameter_min": 251.5011804664,
            "estimated_diameter_max": 562.3737359442
        }
    },
    "is_potentially_hazardous_asteroid": false,
    "close_approach_data": [
        {
            "close_approach_date": "2014-06-23",
            "close_approach_date_full": "2014-Jun-23 02:14",
            "epoch_date_close_approach": 1403489640000,
            "relative_velocity": {
                "kilometers_per_second": "13.1963602898",
                "kilometers_per_hour": "47506.8970433416",
                "miles_per_hour": "29518.9383322919"
            },
            "miss_distance": {
                "astronomical": "0.0398966491",
                "lunar": "15.5197964999",
                "kilometers": "5968453.725497417",
                "miles": "3708625.1737896746"
            },
            "orbiting_body": "Earth"
        }
    ],
    "orbital_data": {
        "orbit_id": "9",
        "orbit_determination_date": "2017-04-06 08:39:53",
        "first_observation_date": "2014-06-28",
        "last_observation_date": "2014-08-01",
        "data_arc_in_days": 34,
        "observations_used": 78,
        "orbit_uncertainty": "8",
        "minimum_orbit_intersection": ".026335",
        "jupiter_tisserand_invariant": "3.380",
        "epoch_osculation": "2456841.5",
        "eccentricity": ".5313951477761699",
        "semi_major_axis": "2.224794286540975",
        "inclination": "19.95521385696089",
        "ascending_node_longitude": "268.4756623080511",
        "orbital_period": "1212.08539349424",
        "perihelion_distance": "1.042549397872955",
        "perihelion_argument": "359.6168721973239",
        "aphelion_distance": "3.407039175208994",
        "perihelion_time": "2456830.059944289267",
        "mean_anomaly": "3.397796952235487",
        "mean_motion": ".2970087767184291",
        "equinox": "J2000",
        "orbit_class": {
            "orbit_class_type": "AMO",
            "orbit_class_description": "Near-Earth asteroid orbits similar to that of 1221 Amor",
            "orbit_class_range": "1.017 AU < q (perihelion) < 1.3 AU"
        }
    },
    "is_sentry_object": false
}